ONEWEB-0208             
1 48243U 21031AK  26113.05069024  .00000177  00000+0  44207-3 0  9991
2 48243  87.8929 300.7094 0001630  81.0833 279.0481 13.14502101241064
ONEWEB-0200             
1 48244U 21031AL  26112.93808917 -.00000185  00000+0 -53266-3 0  9996
2 48244  87.8917 300.7186 0001611  87.9686 272.1628 13.14502993240979
ONEWEB-0217             
1 48245U 21031AM  26113.03006954 -.00000035  00000+0 -12895-3 0  9997
2 48245  87.8932 300.7021 0001584  79.3643 280.7665 13.14502552240935
ONEWEB-0211             
1 48767U 21045A   26113.15246693 -.00000067  00000+0 -21118-3 0  9993
2 48767  87.8948 270.0698 0001814  74.4616 285.6715 13.16193913237207
ONEWEB-0223             
1 48768U 21045B   26113.12776764  .00000121  00000+0  28785-3 0  9994
2 48768  87.8956 270.1685 0001945  84.3717 275.7635 13.15548175237160
ONEWEB-0230             
1 48769U 21045C   26112.79501862  .00000040  00000+0  72520-4 0  9999
2 48769  87.8941 270.2536 0001828 100.7714 259.3623 13.15547798237380
ONEWEB-0237             
1 48770U 21045D   26112.85998279 -.00000030  00000+0 -11320-3 0  9991
2 48770  87.8942 270.2423 0002025  91.5659 268.5704 13.15547987237116
ONEWEB-0235             
1 48771U 21045E   26113.13884677 -.00000048  00000+0 -16280-3 0  9999
2 48771  87.8956 270.1671 0002059  86.1227 274.0138 13.15549312237144
ONEWEB-0242             
1 48772U 21045F   26113.20856273  .00000070  00000+0  15238-3 0  9994
2 48772  87.8956 270.1493 0002003  95.2920 264.8439 13.15548670237199
ONEWEB-0241             
1 48773U 21045G   26112.66350138  .00000184  00000+0  45460-3 0  9999
2 48773  87.8944 270.2829 0001844  83.2912 276.8428 13.15547683237038
ONEWEB-0243             
1 48774U 21045H   26113.15153837 -.00000127  00000+0 -37143-3 0  9990
2 48774  87.8944 270.1968 0002340  93.5180 266.6217 13.15548333237121
ONEWEB-0222             
1 48775U 21045J   26113.13489016  .00000050  00000+0  98537-4 0  9998
2 48775  87.8953 270.1636 0001860  91.6052 268.5292 13.15547529237161
ONEWEB-0244             
1 48776U 21045K   26112.93286660 -.00000093  00000+0 -28239-3 0  9996
2 48776  87.8958 270.1952 0001914  93.7839 266.3510 13.15548215237706
ONEWEB-0247             
1 48777U 21045L   26112.92970404 -.00000089  00000+0 -26951-3 0  9996
2 48777  87.8942 270.2359 0002544  85.6972 274.4449 13.15547685237149
ONEWEB-0245             
1 48778U 21045M   26112.92494198 -.00000119  00000+0 -35021-3 0  9990
2 48778  87.8954 270.2105 0001721  88.8156 271.3171 13.15547834237118
ONEWEB-0229             
1 48779U 21045N   26113.14835678 -.00000068  00000+0 -21482-3 0  9997
2 48779  87.8954 270.1640 0001945  95.8646 264.2706 13.15549033237176
ONEWEB-0228             
1 48780U 21045P   26112.87755285  .00000129  00000+0  30854-3 0  9992
2 48780  87.8960 270.2072 0001863  94.0939 266.0404 13.15548156237057
ONEWEB-0232             
1 48781U 21045Q   26113.15628784 -.00000138  00000+0 -40075-3 0  9996
2 48781  87.8960 270.1537 0001776  95.0690 265.0643 13.15548444237415
ONEWEB-0231             
1 48782U 21045R   26113.13411025 -.00000037  00000+0 -13338-3 0  9993
2 48782  87.8948 270.1770 0001909  88.9906 271.1443 13.15548951237105
ONEWEB-0234             
1 48783U 21045S   26112.86776363  .00000031  00000+0  49126-4 0  9999
2 48783  87.8949 270.2090 0000963  92.0157 268.1084 13.15549281237201
ONEWEB-0238             
1 48784U 21045T   26112.86804529  .00000038  00000+0  67214-4 0  9991
2 48784  87.8945 270.2017 0001374  95.1249 265.0038 13.15547485237108
ONEWEB-0240             
1 48785U 21045U   26112.96535123  .00000061  00000+0  12900-3 0  9991
2 48785  87.8963 270.1913 0001800  85.6255 274.5081 13.15546886237149
ONEWEB-0246             
1 48786U 21045V   26113.26403688  .00000182  00000+0  44913-3 0  9999
2 48786  87.8954 270.1380 0001928  96.8474 263.2876 13.15548071237051
ONEWEB-0210             
1 48787U 21045W   26112.47810947 -.00000014  00000+0 -71666-4 0  9994
2 48787  87.8952 270.2917 0002684  92.5966 267.5472 13.15547485236995
ONEWEB-0214             
1 48788U 21045X   26112.86710176  .00000054  00000+0  10994-3 0  9999
2 48788  87.8955 270.2103 0002203  98.3590 261.7790 13.15546960237010
ONEWEB-0221             
1 48789U 21045Y   26112.87423756  .00000135  00000+0  32555-3 0  9993
2 48789  87.8954 270.2184 0001928  91.3185 268.8167 13.15548404237106
ONEWEB-0213             
1 48790U 21045Z   26112.71103136  .00000005  00000+0 -21841-4 0  9999
2 48790  87.8951 270.2545 0002073  90.8033 269.3335 13.15547305237140
ONEWEB-0212             
1 48791U 21045AA  26112.84015483 -.00000136  00000+0 -39668-3 0  9992
2 48791  87.8954 270.2231 0001753  96.6369 263.4961 13.15545999237154
ONEWEB-0227             
1 48792U 21045AB  26112.83937209 -.00000079  00000+0 -24346-3 0  9994
2 48792  87.8953 270.2250 0001799  93.2920 266.8416 13.15548602237102
ONEWEB-0226             
1 48793U 21045AC  26113.13726204 -.00000012  00000+0 -66878-4 0  9994
2 48793  87.8950 270.1715 0002076  93.5588 266.5780 13.15548969237115
ONEWEB-0224             
1 48794U 21045AD  26112.87265288  .00000076  00000+0  16747-3 0  9992
2 48794  87.8944 270.2606 0001374  67.7164 292.4111 13.15547075237003
ONEWEB-0233             
1 48795U 21045AE  26113.18150322  .00000122  00000+0  29004-3 0  9992
2 48795  87.8943 270.2072 0001898  87.2235 272.9112 13.15548670237069
ONEWEB-0190             
1 48796U 21045AF  26112.86473105 -.00000024  00000+0 -98328-4 0  9993
2 48796  87.8942 270.2318 0002339  83.2206 276.9190 13.15547204237092
ONEWEB-0236             
1 48797U 21045AG  26112.95821974  .00000246  00000+0  62030-3 0  9999
2 48797  87.8944 270.2239 0001644  97.9538 262.1779 13.15547315236996
ONEWEB-0248             
1 48798U 21045AH  26113.12301192  .00000136  00000+0  32689-3 0  9990
2 48798  87.8957 270.1689 0001864  81.7401 278.3941 13.15549508237170
ONEWEB-0225             
1 48799U 21045AJ  26113.14518257  .00000106  00000+0  24875-3 0  9990
2 48799  87.8943 270.1726 0002755  79.4874 280.6566 13.15551947237186
ONEWEB-0215             
1 48800U 21045AK  26112.96297800  .00000597  00000+0  15527-2 0  9997
2 48800  87.8958 270.1905 0002249  79.6168 280.5216 13.15544838237036
ONEWEB-0216             
1 48801U 21045AL  26112.97248495 -.00000007  00000+0 -52096-4 0  9997
2 48801  87.8955 270.2054 0001847  98.4536 261.6804 13.15547544237042
ONEWEB-0239             
1 48802U 21045AM  26113.12934430  .00000024  00000+0  30799-4 0  9990
2 48802  87.8949 270.1855 0002043  72.4416 287.6938 13.15548524237104
ONEWEB-0249             
1 48967U 21060A   26113.10709309  .00000123  00000+0  28848-3 0  9993
2 48967  87.9079 239.7179 0001798  98.3318 261.8017 13.16594831232363
ONEWEB-0250             
1 48968U 21060B   26113.29145620  .00000043  00000+0  68622-4 0  9990
2 48968  87.9080 237.6155 0001000  81.9208 278.2041 13.25830189232941
ONEWEB-0252             
1 48970U 21060D   26113.28996764  .00000018  00000+0  12732-4 0  9998
2 48970  87.9077 239.6734 0002117 103.5544 256.5823 13.16594589232431
ONEWEB-0253             
1 48971U 21060E   26113.27887389  .00000049  00000+0  93551-4 0  9992
2 48971  87.9076 239.6814 0001845  98.4745 261.6595 13.16594533232366
ONEWEB-0254             
1 48972U 21060F   26113.06039624 -.00000068  00000+0 -21098-3 0  9990
2 48972  87.9081 239.7210 0001872  90.9968 269.1378 13.16594469232335
ONEWEB-0255             
1 48973U 21060G   26113.09838499  .00000026  00000+0  34785-4 0  9991
2 48973  87.9076 239.7214 0001890  95.2424 264.8923 13.16595135232417
ONEWEB-0256             
1 48974U 21060H   26113.27650320  .00000112  00000+0  25878-3 0  9995
2 48974  87.9069 239.6935 0001887 104.0735 256.0606 13.16592751232400
ONEWEB-0257             
1 48975U 21060J   26113.30896894  .00000051  00000+0  10089-3 0  9998
2 48975  87.9080 239.6709 0001949  97.9892 262.1461 13.16593007232363
ONEWEB-0258             
1 48976U 21060K   26113.31054028  .00000033  00000+0  52734-4 0  9999
2 48976  87.9084 239.6819 0001785  99.1887 260.9446 13.16593782232376
ONEWEB-0259             
1 48977U 21060L   26113.30420570  .00000051  00000+0  98533-4 0  9995
2 48977  87.9076 239.6827 0001778  96.6652 263.4682 13.16595867232401
ONEWEB-0260             
1 48978U 21060M   26113.06750743  .00000068  00000+0  14534-3 0  9993
2 48978  87.9080 239.7345 0002129 109.9256 250.2105 13.16594749232358
ONEWEB-0261             
1 48979U 21060N   26113.11341717  .00000171  00000+0  41355-3 0  9993
2 48979  87.9075 239.7239 0002147  95.0794 265.0582 13.16596556232415
ONEWEB-0262             
1 48980U 21060P   26113.32163088  .00000093  00000+0  20951-3 0  9993
2 48980  87.9077 239.6668 0001716  93.6745 266.4583 13.16594065232403
ONEWEB-0263             
1 48981U 21060Q   26113.27728777  .00000028  00000+0  39421-4 0  9991
2 48981  87.9076 239.6870 0002042  92.0089 268.1276 13.16595273232360
ONEWEB-0264             
1 48982U 21060R   26113.31450484  .00000024  00000+0  29179-4 0  9999
2 48982  87.9075 239.6832 0002119 101.0394 259.0975 13.16594985232378
ONEWEB-0266             
1 48984U 21060T   26112.87989558  .00000051  00000+0  10042-3 0  9998
2 48984  87.9077 239.7596 0001766 102.0468 258.0860 13.16594027232302
ONEWEB-0267             
1 48985U 21060U   26113.27096015  .00000049  00000+0  95189-4 0  9994
2 48985  87.9078 239.6779 0002015  96.7753 263.3607 13.16595142232363
ONEWEB-0268             
1 48986U 21060V   26113.31527957  .00000020  00000+0  17408-4 0  9991
2 48986  87.9080 239.6788 0001981 104.0100 256.1252 13.16592184232636
ONEWEB-0269             
1 48987U 21060W   26113.29629908 -.00000075  00000+0 -23053-3 0  9992
2 48987  87.9066 239.6915 0001907 107.8591 252.2748 13.16593831232408
ONEWEB-0270             
1 48988U 21060X   26113.31371609  .00000060  00000+0  12272-3 0  9991
2 48988  87.9080 239.6809 0001882  89.2736 270.8610 13.16593760232442
